[{"OBJECT_NAME":"STARLINK-35577","OBJECT_ID":"2025-265Y","EPOCH":"2026-01-25T15:57:14.779296","MEAN_MOTION":15.28294524,"ECCENTRICITY":0.0004115,"INCLINATION":42.998,"RA_OF_ASC_NODE":160.8827,"ARG_OF_PERICENTER":237.4523,"MEAN_ANOMALY":122.5932,"EPHEMERIS_TYPE":0,"CLASSIFICATION_TYPE":"U","NORAD_CAT_ID":66538,"ELEMENT_SET_NO":999,"REV_AT_EPOCH":1053,"BSTAR":0.0019543,"MEAN_MOTION_DOT":0.00055122,"MEAN_MOTION_DDOT":0},{"OBJECT_NAME":"STARLINK-35697","OBJECT_ID":"2025-265Z","EPOCH":"2026-01-25T22:00:01.999584","MEAN_MOTION":15.27526986,"ECCENTRICITY":0.00015749,"INCLINATION":42.999,"RA_OF_ASC_NODE":159.3769,"ARG_OF_PERICENTER":279.0014,"MEAN_ANOMALY":63.5701,"EPHEMERIS_TYPE":0,"CLASSIFICATION_TYPE":"U","NORAD_CAT_ID":66539,"ELEMENT_SET_NO":999,"REV_AT_EPOCH":584,"BSTAR":0.0022035405,"MEAN_MOTION_DOT":0.00060777,"MEAN_MOTION_DDOT":0},{"OBJECT_NAME":"STARLINK-35818","OBJECT_ID":"2025-265AA","EPOCH":"2026-01-25T18:21:20.078208","MEAN_MOTION":15.27614035,"ECCENTRICITY":0.00049219,"INCLINATION":43.0003,"RA_OF_ASC_NODE":160.7769,"ARG_OF_PERICENTER":243.2677,"MEAN_ANOMALY":116.7671,"EPHEMERIS_TYPE":0,"CLASSIFICATION_TYPE":"U","NORAD_CAT_ID":66540,"ELEMENT_SET_NO":999,"REV_AT_EPOCH":1054,"BSTAR":0.0015662232,"MEAN_MOTION_DOT":0.00043146,"MEAN_MOTION_DDOT":0},{"OBJECT_NAME":"STARLINK-35796","OBJECT_ID":"2025-265AB","EPOCH":"2026-01-25T22:00:01.999584","MEAN_MOTION":15.27571677,"ECCENTRICITY":0.00010061,"INCLINATION":42.9991,"RA_OF_ASC_NODE":159.6036,"ARG_OF_PERICENTER":265.6071,"MEAN_ANOMALY":344.8961,"EPHEMERIS_TYPE":0,"CLASSIFICATION_TYPE":"U","NORAD_CAT_ID":66541,"ELEMENT_SET_NO":999,"REV_AT_EPOCH":585,"BSTAR":0.0013101768,"MEAN_MOTION_DOT":0.00035958,"MEAN_MOTION_DDOT":0},{"OBJECT_NAME":"STARLINK-35833","OBJECT_ID":"2025-265AC","EPOCH":"2026-01-25T22:00:01.999584","MEAN_MOTION":15.27562865,"ECCENTRICITY":0.00020263,"INCLINATION":43.001,"RA_OF_ASC_NODE":159.9611,"ARG_OF_PERICENTER":278.2125,"MEAN_ANOMALY":183.7548,"EPHEMERIS_TYPE":0,"CLASSIFICATION_TYPE":"U","NORAD_CAT_ID":66542,"ELEMENT_SET_NO":999,"REV_AT_EPOCH":590,"BSTAR":0.001742884,"MEAN_MOTION_DOT":0.00047987,"MEAN_MOTION_DDOT":0},{"OBJECT_NAME":"STARLINK-35315","OBJECT_ID":"2025-265AD","EPOCH":"2026-01-25T17:59:48.026688","MEAN_MOTION":15.28457389,"ECCENTRICITY":0.00033675,"INCLINATION":42.9992,"RA_OF_ASC_NODE":160.6649,"ARG_OF_PERICENTER":248.9849,"MEAN_ANOMALY":111.0643,"EPHEMERIS_TYPE":0,"CLASSIFICATION_TYPE":"U","NORAD_CAT_ID":66543,"ELEMENT_SET_NO":999,"REV_AT_EPOCH":1054,"BSTAR":0.0016978216,"MEAN_MOTION_DOT":0.00048044,"MEAN_MOTION_DDOT":0},{"OBJECT_NAME":"STARLINK-35728","OBJECT_ID":"2025-265AE","EPOCH":"2026-01-25T22:00:01.999584","MEAN_MOTION":15.2755457,"ECCENTRICITY":0.00014933,"INCLINATION":42.9994,"RA_OF_ASC_NODE":159.2737,"ARG_OF_PERICENTER":275.4283,"MEAN_ANOMALY":109.5447,"EPHEMERIS_TYPE":0,"CLASSIFICATION_TYPE":"U","NORAD_CAT_ID":66544,"ELEMENT_SET_NO":999,"REV_AT_EPOCH":590,"BSTAR":0.0016494406,"MEAN_MOTION_DOT":0.00045371,"MEAN_MOTION_DDOT":0},{"OBJECT_NAME":"STARLINK-35699","OBJECT_ID":"2025-268A","EPOCH":"2026-01-25T20:29:16.991232","MEAN_MOTION":15.27592817,"ECCENTRICITY":0.00015168,"INCLINATION":43.0001,"RA_OF_ASC_NODE":229.3992,"ARG_OF_PERICENTER":275.7348,"MEAN_ANOMALY":84.3331,"EPHEMERIS_TYPE":0,"CLASSIFICATION_TYPE":"U","NORAD_CAT_ID":66557,"ELEMENT_SET_NO":999,"REV_AT_EPOCH":1140,"BSTAR":0.001328129,"MEAN_MOTION_DOT":0.00036481,"MEAN_MOTION_DDOT":0},{"OBJECT_NAME":"STARLINK-35695","OBJECT_ID":"2025-268B","EPOCH":"2026-01-25T14:07:06.312000","MEAN_MOTION":15.27606837,"ECCENTRICITY":0.0002178,"INCLINATION":42.9998,"RA_OF_ASC_NODE":230.8463,"ARG_OF_PERICENTER":272.8447,"MEAN_ANOMALY":87.2155,"EPHEMERIS_TYPE":0,"CLASSIFICATION_TYPE":"U","NORAD_CAT_ID":66558,"ELEMENT_SET_NO":999,"REV_AT_EPOCH":1136,"BSTAR":0.001387,"MEAN_MOTION_DOT":0.00038136,"MEAN_MOTION_DDOT":0},{"OBJECT_NAME":"STARLINK-35419","OBJECT_ID":"2025-268C","EPOCH":"2026-01-25T21:26:26.151936","MEAN_MOTION":15.27614813,"ECCENTRICITY":0.00010002,"INCLINATION":42.9986,"RA_OF_ASC_NODE":228.8384,"ARG_OF_PERICENTER":346.4326,"MEAN_ANOMALY":13.6499,"EPHEMERIS_TYPE":0,"CLASSIFICATION_TYPE":"U","NORAD_CAT_ID":66559,"ELEMENT_SET_NO":999,"REV_AT_EPOCH":1141,"BSTAR":0.0014512511,"MEAN_MOTION_DOT":0.00039932,"MEAN_MOTION_DDOT":0},{"OBJECT_NAME":"STARLINK-35411","OBJECT_ID":"2025-268D","EPOCH":"2026-01-25T21:22:43.420512","MEAN_MOTION":15.27604991,"ECCENTRICITY":0.00015015,"INCLINATION":43.0009,"RA_OF_ASC_NODE":228.8187,"ARG_OF_PERICENTER":268.4748,"MEAN_ANOMALY":91.5932,"EPHEMERIS_TYPE":0,"CLASSIFICATION_TYPE":"U","NORAD_CAT_ID":66560,"ELEMENT_SET_NO":999,"REV_AT_EPOCH":1141,"BSTAR":0.0012786979,"MEAN_MOTION_DOT":0.0003512,"MEAN_MOTION_DDOT":0},{"OBJECT_NAME":"STARLINK-35305","OBJECT_ID":"2025-268E","EPOCH":"2026-01-25T22:45:47.101248","MEAN_MOTION":15.27593203,"ECCENTRICITY":0.00016767,"INCLINATION":43.0023,"RA_OF_ASC_NODE":228.3934,"ARG_OF_PERICENTER":281.6366,"MEAN_ANOMALY":78.4297,"EPHEMERIS_TYPE":0,"CLASSIFICATION_TYPE":"U","NORAD_CAT_ID":66561,"ELEMENT_SET_NO":999,"REV_AT_EPOCH":1142,"BSTAR":0.0014874894,"MEAN_MOTION_DOT":0.00040915,"MEAN_MOTION_DDOT":0},{"OBJECT_NAME":"STARLINK-35579","OBJECT_ID":"2025-268F","EPOCH":"2026-01-25T21:17:10.146336","MEAN_MOTION":15.27605416,"ECCENTRICITY":0.00023738,"INCLINATION":43.0019,"RA_OF_ASC_NODE":228.7891,"ARG_OF_PERICENTER":268.0028,"MEAN_ANOMALY":92.0551,"EPHEMERIS_TYPE":0,"CLASSIFICATION_TYPE":"U","NORAD_CAT_ID":66562,"ELEMENT_SET_NO":999,"REV_AT_EPOCH":1141,"BSTAR":0.0011271731,"MEAN_MOTION_DOT":0.0003091,"MEAN_MOTION_DDOT":0},{"OBJECT_NAME":"STARLINK-35437","OBJECT_ID":"2025-268G","EPOCH":"2026-01-25T22:40:13.912608","MEAN_MOTION":15.27593774,"ECCENTRICITY":0.00016926,"INCLINATION":43.0038,"RA_OF_ASC_NODE":228.3648,"ARG_OF_PERICENTER":283.5247,"MEAN_ANOMALY":76.5416,"EPHEMERIS_TYPE":0,"CLASSIFICATION_TYPE":"U","NORAD_CAT_ID":66563,"ELEMENT_SET_NO":999,"REV_AT_EPOCH":1142,"BSTAR":0.0013729676,"MEAN_MOTION_DOT":0.00037729,"MEAN_MOTION_DDOT":0},{"OBJECT_NAME":"STARLINK-35358","OBJECT_ID":"2025-268H","EPOCH":"2026-01-25T14:43:54.100704","MEAN_MOTION":15.2759878,"ECCENTRICITY":2.56e-5,"INCLINATION":43.0015,"RA_OF_ASC_NODE":230.1795,"ARG_OF_PERICENTER":270.422,"MEAN_ANOMALY":89.6602,"EPHEMERIS_TYPE":0,"CLASSIFICATION_TYPE":"U","NORAD_CAT_ID":66564,"ELEMENT_SET_NO":999,"REV_AT_EPOCH":1137,"BSTAR":0.0013393,"MEAN_MOTION_DOT":0.00036797,"MEAN_MOTION_DDOT":0},{"OBJECT_NAME":"STARLINK-35893","OBJECT_ID":"2025-268J","EPOCH":"2026-01-25T22:29:07.257120","MEAN_MOTION":15.27609581,"ECCENTRICITY":0.00025669,"INCLINATION":43.0045,"RA_OF_ASC_NODE":228.3033,"ARG_OF_PERICENTER":264.9275,"MEAN_ANOMALY":95.1283,"EPHEMERIS_TYPE":0,"CLASSIFICATION_TYPE":"U","NORAD_CAT_ID":66565,"ELEMENT_SET_NO":999,"REV_AT_EPOCH":1142,"BSTAR":0.001303032,"MEAN_MOTION_DOT":0.00035803,"MEAN_MOTION_DDOT":0},{"OBJECT_NAME":"STARLINK-35871","OBJECT_ID":"2025-268K","EPOCH":"2026-01-25T20:51:15.955488","MEAN_MOTION":15.27591077,"ECCENTRICITY":0.00016365,"INCLINATION":43.0021,"RA_OF_ASC_NODE":228.6517,"ARG_OF_PERICENTER":265.4393,"MEAN_ANOMALY":94.6272,"EPHEMERIS_TYPE":0,"CLASSIFICATION_TYPE":"U","NORAD_CAT_ID":66566,"ELEMENT_SET_NO":999,"REV_AT_EPOCH":1141,"BSTAR":0.0010175572,"MEAN_MOTION_DOT":0.00027854,"MEAN_MOTION_DDOT":0},{"OBJECT_NAME":"STARLINK-35825","OBJECT_ID":"2025-268L","EPOCH":"2026-01-25T14:29:05.806752","MEAN_MOTION":15.2758816,"ECCENTRICITY":0.0001265,"INCLINATION":42.9997,"RA_OF_ASC_NODE":230.0976,"ARG_OF_PERICENTER":275.2403,"MEAN_ANOMALY":84.8304,"EPHEMERIS_TYPE":0,"CLASSIFICATION_TYPE":"U","NORAD_CAT_ID":66567,"ELEMENT_SET_NO":999,"REV_AT_EPOCH":1137,"BSTAR":0.0018079,"MEAN_MOTION_DOT":0.00049836,"MEAN_MOTION_DDOT":0},{"OBJECT_NAME":"STARLINK-35803","OBJECT_ID":"2025-268M","EPOCH":"2026-01-25T14:21:41.710752","MEAN_MOTION":15.27601583,"ECCENTRICITY":5.25e-5,"INCLINATION":42.9953,"RA_OF_ASC_NODE":230.0534,"ARG_OF_PERICENTER":304.9044,"MEAN_ANOMALY":55.1759,"EPHEMERIS_TYPE":0,"CLASSIFICATION_TYPE":"U","NORAD_CAT_ID":66568,"ELEMENT_SET_NO":999,"REV_AT_EPOCH":1137,"BSTAR":0.0010931,"MEAN_MOTION_DOT":0.00029961,"MEAN_MOTION_DDOT":0},{"OBJECT_NAME":"STARLINK-35835","OBJECT_ID":"2025-268N","EPOCH":"2026-01-25T20:34:36.666912","MEAN_MOTION":15.27606082,"ECCENTRICITY":0.0002004,"INCLINATION":43.0025,"RA_OF_ASC_NODE":228.5563,"ARG_OF_PERICENTER":258.881,"MEAN_ANOMALY":101.1816,"EPHEMERIS_TYPE":0,"CLASSIFICATION_TYPE":"U","NORAD_CAT_ID":66569,"ELEMENT_SET_NO":999,"REV_AT_EPOCH":1141,"BSTAR":0.0017499641,"MEAN_MOTION_DOT":0.00048248,"MEAN_MOTION_DDOT":0},{"OBJECT_NAME":"STARLINK-35834","OBJECT_ID":"2025-268P","EPOCH":"2026-01-25T22:05:16.287360","MEAN_MOTION":15.27600603,"ECCENTRICITY":0.0004533,"INCLINATION":42.9996,"RA_OF_ASC_NODE":229.039,"ARG_OF_PERICENTER":245.0853,"MEAN_ANOMALY":114.9528,"EPHEMERIS_TYPE":0,"CLASSIFICATION_TYPE":"U","NORAD_CAT_ID":66570,"ELEMENT_SET_NO":999,"REV_AT_EPOCH":1141,"BSTAR":0.0014436969,"MEAN_MOTION_DOT":0.00039713,"MEAN_MOTION_DDOT":0},{"OBJECT_NAME":"STARLINK-35836","OBJECT_ID":"2025-268Q","EPOCH":"2026-01-25T21:59:43.030464","MEAN_MOTION":15.27618978,"ECCENTRICITY":0.00040088,"INCLINATION":42.9952,"RA_OF_ASC_NODE":229.0078,"ARG_OF_PERICENTER":243.0106,"MEAN_ANOMALY":117.0336,"EPHEMERIS_TYPE":0,"CLASSIFICATION_TYPE":"U","NORAD_CAT_ID":66571,"ELEMENT_SET_NO":999,"REV_AT_EPOCH":1141,"BSTAR":0.0016434281,"MEAN_MOTION_DOT":0.00045301,"MEAN_MOTION_DDOT":0},{"OBJECT_NAME":"STARLINK-35870","OBJECT_ID":"2025-268R","EPOCH":"2026-01-25T20:16:19.301376","MEAN_MOTION":15.27597682,"ECCENTRICITY":0.00018307,"INCLINATION":42.9998,"RA_OF_ASC_NODE":229.3292,"ARG_OF_PERICENTER":273.6332,"MEAN_ANOMALY":86.4311,"EPHEMERIS_TYPE":0,"CLASSIFICATION_TYPE":"U","NORAD_CAT_ID":66572,"ELEMENT_SET_NO":999,"REV_AT_EPOCH":1140,"BSTAR":0.0012865931,"MEAN_MOTION_DOT":0.00035332,"MEAN_MOTION_DDOT":0}]
